{
  "type": "FeatureCollection",
  "features": [
    {
      "type": "Feature",
      "properties": {
        "__gm_id": "feature-18",
        "__gm_shape": "line",
        "name": "bangpra_airport",
        "length": 926.8657,
        "area": 145056.179,
        "cost": 261101122.20000002
      },
      "geometry": {
        "type": "Polygon",
        "coordinates": [
          [
            [
              100.9609566998079,
              13.234833718715016
            ],
            [
              100.96104938541194,
              13.234917916542027
            ],
            [
              100.96112341578133,
              13.23501809830713
            ],
            [
              100.96117594595873,
              13.235130414098391
            ],
            [
              100.96120495721448,
              13.23525054769656
            ],
            [
              100.96120933462909,
              13.235373882442882
            ],
            [
              100.96118890994396,
              13.235495678653475
            ],
            [
              100.9611444680331,
              13.235611255762528
            ],
            [
              100.96107771674625,
              13.235716172194701
            ],
            [
              100.96099122128136,
              13.235806396054176
            ],
            [
              100.96088830560811,
              13.235878460070625
            ],
            [
              100.96077292472988,
              13.235929594847175
            ],
            [
              100.96064951269348,
              13.235957835289426
            ],
            [
              100.96052281218748,
              13.235962096124968
            ],
            [
              100.96039769227829,
              13.235942213611036
            ],
            [
              100.96027896128903,
              13.23589895182722
            ],
            [
              100.96017118201303,
              13.23583397331148
            ],
            [
              100.95336846461917,
              13.230771512606667
            ],
            [
              100.95327578324667,
              13.23068731201101
            ],
            [
              100.95320175741976,
              13.230587127986542
            ],
            [
              100.95314923189767,
              13.230474810566259
            ],
            [
              100.95312022518239,
              13.230354676059246
            ],
            [
              100.95311585195252,
              13.230231341175276
            ],
            [
              100.9531362802318,
              13.230109545606016
            ],
            [
              100.95318072493778,
              13.229993969881143
            ],
            [
              100.95324747805735,
              13.229889055499088
            ],
            [
              100.95333397428904,
              13.229798834244553
            ],
            [
              100.95343688962862,
              13.229726773251732
            ],
            [
              100.9535522691091,
              13.229675641767063
            ],
            [
              100.9536756787861,
              13.229647404731207
            ],
            [
              100.95380237612818,
              13.229643147269572
            ],
            [
              100.95392749226454,
              13.229663032992782
            ],
            [
              100.95404621908736,
              13.229706297709393
            ],
            [
              100.95415399401942,
              13.229771278792468
            ],
            [
              100.9609566998079,
              13.234833718715016
            ]
          ]
        ]
      }
    }
  ]
}