{
  "type": "FeatureCollection",
  "features": [
    {
      "type": "Feature",
      "id": "det_1",
      "geometry": {
        "type": "Point",
        "coordinates": [
          100.953948,
          13.231321
        ]
      },
      "properties": {
        "object_id": "OBJ-001",
        "class": "airplane",
        "confidence": 0.741,
        "model_source": "yolov8n.pt",
        "has_segmentation": false,
        "land_use_zone": "w",
        "land_use_name": "Zone",
        "in_runway_safety_buffer": false,
        "risk_alert": "NORMAL",
        "pixel_coordinates": [
          1871.2,
          7244.6
        ],
        "wgs84_coords": [
          13.231321,
          100.953948
        ],
        "bbox_polygon": [
          [
            100.95391595696277,
            13.231335113070013
          ],
          [
            100.95398038911546,
            13.231334620170088
          ],
          [
            100.9539801608085,
            13.231305977289788
          ],
          [
            100.95391572866335,
            13.23130647018861
          ],
          [
            100.95391595696277,
            13.231335113070013
          ]
        ],
        "segmentation_polygon": [
          [
            100.95391595696277,
            13.231335113070013
          ],
          [
            100.95398038911546,
            13.231334620170088
          ],
          [
            100.9539801608085,
            13.231305977289788
          ],
          [
            100.95391572866335,
            13.23130647018861
          ],
          [
            100.95391595696277,
            13.231335113070013
          ]
        ],
        "status": "Operational"
      }
    },
    {
      "type": "Feature",
      "id": "det_2",
      "geometry": {
        "type": "Point",
        "coordinates": [
          100.953311,
          13.231838
        ]
      },
      "properties": {
        "object_id": "OBJ-002",
        "class": "person",
        "confidence": 0.653,
        "model_source": "yolov8n.pt",
        "has_segmentation": false,
        "land_use_zone": "u",
        "land_use_name": "Urban / Road Corridor",
        "in_runway_safety_buffer": false,
        "risk_alert": "NORMAL",
        "pixel_coordinates": [
          480.4,
          6110.7
        ],
        "wgs84_coords": [
          13.231838,
          100.953311
        ],
        "bbox_polygon": [
          [
            100.9530922594532,
            13.23206962925782
          ],
          [
            100.95353267041088,
            13.232066261079268
          ],
          [
            100.95352900225294,
            13.231605974837136
          ],
          [
            100.95308859212093,
            13.231609342894412
          ],
          [
            100.9530922594532,
            13.23206962925782
          ]
        ],
        "segmentation_polygon": [
          [
            100.9530922594532,
            13.23206962925782
          ],
          [
            100.95353267041088,
            13.232066261079268
          ],
          [
            100.95352900225294,
            13.231605974837136
          ],
          [
            100.95308859212093,
            13.231609342894412
          ],
          [
            100.9530922594532,
            13.23206962925782
          ]
        ],
        "status": "Operational"
      }
    },
    {
      "type": "Feature",
      "id": "det_3",
      "geometry": {
        "type": "Point",
        "coordinates": [
          100.954983,
          13.232923
        ]
      },
      "properties": {
        "object_id": "OBJ-003",
        "class": "person",
        "confidence": 0.558,
        "model_source": "yolov8n.pt",
        "has_segmentation": false,
        "land_use_zone": "u",
        "land_use_name": "Urban / Road Corridor",
        "in_runway_safety_buffer": false,
        "risk_alert": "NORMAL",
        "pixel_coordinates": [
          4086.4,
          3681.1
        ],
        "wgs84_coords": [
          13.232923,
          100.954983
        ],
        "bbox_polygon": [
          [
            100.95495959017245,
            13.232949322858062
          ],
          [
            100.95500608089343,
            13.23294896697968
          ],
          [
            100.9550056627601,
            13.23289654303505
          ],
          [
            100.95495917204906,
            13.232896898911973
          ],
          [
            100.95495959017245,
            13.232949322858062
          ]
        ],
        "segmentation_polygon": [
          [
            100.95495959017245,
            13.232949322858062
          ],
          [
            100.95500608089343,
            13.23294896697968
          ],
          [
            100.9550056627601,
            13.23289654303505
          ],
          [
            100.95495917204906,
            13.232896898911973
          ],
          [
            100.95495959017245,
            13.232949322858062
          ]
        ],
        "status": "Operational"
      }
    },
    {
      "type": "Feature",
      "id": "det_4",
      "geometry": {
        "type": "Point",
        "coordinates": [
          100.953441,
          13.232559
        ]
      },
      "properties": {
        "object_id": "OBJ-004",
        "class": "person",
        "confidence": 0.484,
        "model_source": "yolov8n.pt",
        "has_segmentation": false,
        "land_use_zone": "u",
        "land_use_name": "Urban / Road Corridor",
        "in_runway_safety_buffer": false,
        "risk_alert": "NORMAL",
        "pixel_coordinates": [
          749.9,
          4512.3
        ],
        "wgs84_coords": [
          13.232559,
          100.953441
        ],
        "bbox_polygon": [
          [
            100.95331725001768,
            13.232790175075662
          ],
          [
            100.95356778263475,
            13.232788258825739
          ],
          [
            100.95356411491427,
            13.232328061800452
          ],
          [
            100.95331358276682,
            13.232329977981395
          ],
          [
            100.95331725001768,
            13.232790175075662
          ]
        ],
        "segmentation_polygon": [
          [
            100.95331725001768,
            13.232790175075662
          ],
          [
            100.95356778263475,
            13.232788258825739
          ],
          [
            100.95356411491427,
            13.232328061800452
          ],
          [
            100.95331358276682,
            13.232329977981395
          ],
          [
            100.95331725001768,
            13.232790175075662
          ]
        ],
        "status": "Operational"
      }
    },
    {
      "type": "Feature",
      "id": "det_5",
      "geometry": {
        "type": "Point",
        "coordinates": [
          100.955301,
          13.232152
        ]
      },
      "properties": {
        "object_id": "OBJ-005",
        "class": "person",
        "confidence": 0.374,
        "model_source": "yolov8n.pt",
        "has_segmentation": false,
        "land_use_zone": "u",
        "land_use_name": "Urban / Road Corridor",
        "in_runway_safety_buffer": true,
        "risk_alert": "RUNWAY_BUFFER_INTRUSION_WARNING",
        "pixel_coordinates": [
          4789.5,
          5381.9
        ],
        "wgs84_coords": [
          13.232152,
          100.955301
        ],
        "bbox_polygon": [
          [
            100.95528304088933,
            13.232171013004992
          ],
          [
            100.95531881379151,
            13.23217073913999
          ],
          [
            100.95531851145344,
            13.232132836936378
          ],
          [
            100.95528273855679,
            13.232133110800563
          ],
          [
            100.95528304088933,
            13.232171013004992
          ]
        ],
        "segmentation_polygon": [
          [
            100.95528304088933,
            13.232171013004992
          ],
          [
            100.95531881379151,
            13.23217073913999
          ],
          [
            100.95531851145344,
            13.232132836936378
          ],
          [
            100.95528273855679,
            13.232133110800563
          ],
          [
            100.95528304088933,
            13.232171013004992
          ]
        ],
        "status": "Operational"
      }
    },
    {
      "type": "Feature",
      "id": "det_6",
      "geometry": {
        "type": "Point",
        "coordinates": [
          100.954835,
          13.230818
        ]
      },
      "properties": {
        "object_id": "OBJ-006",
        "class": "person",
        "confidence": 0.288,
        "model_source": "yolov8n.pt",
        "has_segmentation": false,
        "land_use_zone": "u",
        "land_use_name": "Urban / Road Corridor",
        "in_runway_safety_buffer": true,
        "risk_alert": "RUNWAY_BUFFER_INTRUSION_WARNING",
        "pixel_coordinates": [
          3802.9,
          8341.4
        ],
        "wgs84_coords": [
          13.230818,
          100.954835
        ],
        "bbox_polygon": [
          [
            100.95481473740355,
            13.230850479166516
          ],
          [
            100.95485590704442,
            13.230850164090217
          ],
          [
            100.95485539308561,
            13.230785710327076
          ],
          [
            100.95481422345556,
            13.23078602540179
          ],
          [
            100.95481473740355,
            13.230850479166516
          ]
        ],
        "segmentation_polygon": [
          [
            100.95481473740355,
            13.230850479166516
          ],
          [
            100.95485590704442,
            13.230850164090217
          ],
          [
            100.95485539308561,
            13.230785710327076
          ],
          [
            100.95481422345556,
            13.23078602540179
          ],
          [
            100.95481473740355,
            13.230850479166516
          ]
        ],
        "status": "Operational"
      }
    },
    {
      "type": "Feature",
      "id": "det_7",
      "geometry": {
        "type": "Point",
        "coordinates": [
          100.954753,
          13.230948
        ]
      },
      "properties": {
        "object_id": "OBJ-007",
        "class": "person",
        "confidence": 0.263,
        "model_source": "yolov8n.pt",
        "has_segmentation": false,
        "land_use_zone": "u",
        "land_use_name": "Urban / Road Corridor",
        "in_runway_safety_buffer": true,
        "risk_alert": "RUNWAY_BUFFER_INTRUSION_WARNING",
        "pixel_coordinates": [
          3621.7,
          8056.2
        ],
        "wgs84_coords": [
          13.230948,
          100.954753
        ],
        "bbox_polygon": [
          [
            100.95472604291042,
            13.230972940165234
          ],
          [
            100.95477936331083,
            13.230972532111444
          ],
          [
            100.9547789631437,
            13.230922347104878
          ],
          [
            100.95472564275418,
            13.230922755157065
          ],
          [
            100.95472604291042,
            13.230972940165234
          ]
        ],
        "segmentation_polygon": [
          [
            100.95472604291042,
            13.230972940165234
          ],
          [
            100.95477936331083,
            13.230972532111444
          ],
          [
            100.9547789631437,
            13.230922347104878
          ],
          [
            100.95472564275418,
            13.230922755157065
          ],
          [
            100.95472604291042,
            13.230972940165234
          ]
        ],
        "status": "Operational"
      }
    },
    {
      "type": "Feature",
      "id": "det_8",
      "geometry": {
        "type": "Point",
        "coordinates": [
          100.953356,
          13.233282
        ]
      },
      "properties": {
        "object_id": "OBJ-008",
        "class": "person",
        "confidence": 0.241,
        "model_source": "yolov8n.pt",
        "has_segmentation": false,
        "land_use_zone": "u",
        "land_use_name": "Urban / Road Corridor",
        "in_runway_safety_buffer": false,
        "risk_alert": "NORMAL",
        "pixel_coordinates": [
          553.4,
          2913.3
        ],
        "wgs84_coords": [
          13.233282,
          100.953356
        ],
        "bbox_polygon": [
          [
            100.9531421181212,
            13.233514722017128
          ],
          [
            100.95357321918095,
            13.233511424628679
          ],
          [
            100.9535695408649,
            13.233049925572873
          ],
          [
            100.9531384406156,
            13.233053222842296
          ],
          [
            100.9531421181212,
            13.233514722017128
          ]
        ],
        "segmentation_polygon": [
          [
            100.9531421181212,
            13.233514722017128
          ],
          [
            100.95357321918095,
            13.233511424628679
          ],
          [
            100.9535695408649,
            13.233049925572873
          ],
          [
            100.9531384406156,
            13.233053222842296
          ],
          [
            100.9531421181212,
            13.233514722017128
          ]
        ],
        "status": "Operational"
      }
    },
    {
      "type": "Feature",
      "id": "det_9",
      "geometry": {
        "type": "Point",
        "coordinates": [
          100.955549,
          13.234352
        ]
      },
      "properties": {
        "object_id": "OBJ-009",
        "class": "person",
        "confidence": 0.234,
        "model_source": "yolov8n.pt",
        "has_segmentation": false,
        "land_use_zone": "u",
        "land_use_name": "Urban / Road Corridor",
        "in_runway_safety_buffer": false,
        "risk_alert": "NORMAL",
        "pixel_coordinates": [
          5290.4,
          509.8
        ],
        "wgs84_coords": [
          13.234352,
          100.955549
        ],
        "bbox_polygon": [
          [
            100.95533357563099,
            13.23458124257996
          ],
          [
            100.9557688146495,
            13.23457790955093
          ],
          [
            100.95576517713455,
            13.23412208055013
          ],
          [
            100.95532993892427,
            13.234125413460331
          ],
          [
            100.95533357563099,
            13.23458124257996
          ]
        ],
        "segmentation_polygon": [
          [
            100.95533357563099,
            13.23458124257996
          ],
          [
            100.9557688146495,
            13.23457790955093
          ],
          [
            100.95576517713455,
            13.23412208055013
          ],
          [
            100.95532993892427,
            13.234125413460331
          ],
          [
            100.95533357563099,
            13.23458124257996
          ]
        ],
        "status": "Operational"
      }
    },
    {
      "type": "Feature",
      "id": "det_10",
      "geometry": {
        "type": "Point",
        "coordinates": [
          100.953464,
          13.233506
        ]
      },
      "properties": {
        "object_id": "OBJ-010",
        "class": "person",
        "confidence": 0.222,
        "model_source": "yolov8n.pt",
        "has_segmentation": false,
        "land_use_zone": "u",
        "land_use_name": "Urban / Road Corridor",
        "in_runway_safety_buffer": false,
        "risk_alert": "NORMAL",
        "pixel_coordinates": [
          784.2,
          2416.1
        ],
        "wgs84_coords": [
          13.233506,
          100.953464
        ],
        "bbox_polygon": [
          [
            100.95335489167216,
            13.233600583868391
          ],
          [
            100.95357473575802,
            13.23359890223127
          ],
          [
            100.95357324439419,
            13.233411792165544
          ],
          [
            100.9533534004759,
            13.233413473778056
          ],
          [
            100.95335489167216,
            13.233600583868391
          ]
        ],
        "segmentation_polygon": [
          [
            100.95335489167216,
            13.233600583868391
          ],
          [
            100.95357473575802,
            13.23359890223127
          ],
          [
            100.95357324439419,
            13.233411792165544
          ],
          [
            100.9533534004759,
            13.233413473778056
          ],
          [
            100.95335489167216,
            13.233600583868391
          ]
        ],
        "status": "Operational"
      }
    },
    {
      "type": "Feature",
      "id": "det_11",
      "geometry": {
        "type": "Point",
        "coordinates": [
          100.956242,
          13.231443
        ]
      },
      "properties": {
        "object_id": "OBJ-011",
        "class": "person",
        "confidence": 0.188,
        "model_source": "yolov8n.pt",
        "has_segmentation": false,
        "land_use_zone": "u",
        "land_use_name": "Urban / Road Corridor",
        "in_runway_safety_buffer": true,
        "risk_alert": "RUNWAY_BUFFER_INTRUSION_WARNING",
        "pixel_coordinates": [
          6841.6,
          6934.8
        ],
        "wgs84_coords": [
          13.231443,
          100.956242
        ],
        "bbox_polygon": [
          [
            100.95621628888188,
            13.231467017795614
          ],
          [
            100.95626747166132,
            13.231466625788537
          ],
          [
            100.95626709127177,
            13.231418959259546
          ],
          [
            100.95621590850226,
            13.231419351265162
          ],
          [
            100.95621628888188,
            13.231467017795614
          ]
        ],
        "segmentation_polygon": [
          [
            100.95621628888188,
            13.231467017795614
          ],
          [
            100.95626747166132,
            13.231466625788537
          ],
          [
            100.95626709127177,
            13.231418959259546
          ],
          [
            100.95621590850226,
            13.231419351265162
          ],
          [
            100.95621628888188,
            13.231467017795614
          ]
        ],
        "status": "Operational"
      }
    },
    {
      "type": "Feature",
      "id": "det_12",
      "geometry": {
        "type": "Point",
        "coordinates": [
          100.95407,
          13.233881
        ]
      },
      "properties": {
        "object_id": "OBJ-012",
        "class": "person",
        "confidence": 0.182,
        "model_source": "yolov8n.pt",
        "has_segmentation": false,
        "land_use_zone": "u",
        "land_use_name": "Urban / Road Corridor",
        "in_runway_safety_buffer": false,
        "risk_alert": "NORMAL",
        "pixel_coordinates": [
          2091.4,
          1576.6
        ],
        "wgs84_coords": [
          13.233881,
          100.95407
        ],
        "bbox_polygon": [
          [
            100.95405146680102,
            13.23389983241326
          ],
          [
            100.95408885995461,
            13.233899546289853
          ],
          [
            100.95408856062055,
            13.233862002128541
          ],
          [
            100.95405116747267,
            13.233862288251107
          ],
          [
            100.95405146680102,
            13.23389983241326
          ]
        ],
        "segmentation_polygon": [
          [
            100.95405146680102,
            13.23389983241326
          ],
          [
            100.95408885995461,
            13.233899546289853
          ],
          [
            100.95408856062055,
            13.233862002128541
          ],
          [
            100.95405116747267,
            13.233862288251107
          ],
          [
            100.95405146680102,
            13.23389983241326
          ]
        ],
        "status": "Operational"
      }
    },
    {
      "type": "Feature",
      "id": "det_13",
      "geometry": {
        "type": "Point",
        "coordinates": [
          100.953445,
          13.232198
        ]
      },
      "properties": {
        "object_id": "OBJ-013",
        "class": "person",
        "confidence": 0.166,
        "model_source": "yolov8n.pt",
        "has_segmentation": false,
        "land_use_zone": "u",
        "land_use_name": "Urban / Road Corridor",
        "in_runway_safety_buffer": false,
        "risk_alert": "NORMAL",
        "pixel_coordinates": [
          765.7,
          5310.3
        ],
        "wgs84_coords": [
          13.232198,
          100.953445
        ],
        "bbox_polygon": [
          [
            100.95333113654463,
            13.232429082646375
          ],
          [
            100.9535627081213,
            13.23242731146465
          ],
          [
            100.9535590468255,
            13.231967906382804
          ],
          [
            100.95332747568217,
            13.23196967750088
          ],
          [
            100.95333113654463,
            13.232429082646375
          ]
        ],
        "segmentation_polygon": [
          [
            100.95333113654463,
            13.232429082646375
          ],
          [
            100.9535627081213,
            13.23242731146465
          ],
          [
            100.9535590468255,
            13.231967906382804
          ],
          [
            100.95332747568217,
            13.23196967750088
          ],
          [
            100.95333113654463,
            13.232429082646375
          ]
        ],
        "status": "Operational"
      }
    },
    {
      "type": "Feature",
      "id": "det_14",
      "geometry": {
        "type": "Point",
        "coordinates": [
          100.954937,
          13.232813
        ]
      },
      "properties": {
        "object_id": "OBJ-014",
        "class": "person",
        "confidence": 0.153,
        "model_source": "yolov8n.pt",
        "has_segmentation": false,
        "land_use_zone": "u",
        "land_use_name": "main_build",
        "in_runway_safety_buffer": false,
        "risk_alert": "NORMAL",
        "pixel_coordinates": [
          3988.4,
          3924.9
        ],
        "wgs84_coords": [
          13.232813,
          100.954937
        ],
        "bbox_polygon": [
          [
            100.95482931994263,
            13.232948255251966
          ],
          [
            100.95504591557648,
            13.232946597288647
          ],
          [
            100.95504377327627,
            13.23267800697193
          ],
          [
            100.9548271778794,
            13.232679664900415
          ],
          [
            100.95482931994263,
            13.232948255251966
          ]
        ],
        "segmentation_polygon": [
          [
            100.95482931994263,
            13.232948255251966
          ],
          [
            100.95504591557648,
            13.232946597288647
          ],
          [
            100.95504377327627,
            13.23267800697193
          ],
          [
            100.9548271778794,
            13.232679664900415
          ],
          [
            100.95482931994263,
            13.232948255251966
          ]
        ],
        "status": "Operational"
      }
    },
    {
      "type": "Feature",
      "id": "det_15",
      "geometry": {
        "type": "Point",
        "coordinates": [
          100.955908,
          13.231451
        ]
      },
      "properties": {
        "object_id": "OBJ-015",
        "class": "person",
        "confidence": 0.151,
        "model_source": "yolov8n.pt",
        "has_segmentation": false,
        "land_use_zone": "u",
        "land_use_name": "Urban / Road Corridor",
        "in_runway_safety_buffer": true,
        "risk_alert": "RUNWAY_BUFFER_INTRUSION_WARNING",
        "pixel_coordinates": [
          6118.2,
          6922.3
        ],
        "wgs84_coords": [
          13.231451,
          100.955908
        ],
        "bbox_polygon": [
          [
            100.95567699201648,
            13.231678203605536
          ],
          [
            100.95614280558979,
            13.231674636509565
          ],
          [
            100.95613921067485,
            13.231224129652567
          ],
          [
            100.95567339795628,
            13.231227696622824
          ],
          [
            100.95567699201648,
            13.231678203605536
          ]
        ],
        "segmentation_polygon": [
          [
            100.95567699201648,
            13.231678203605536
          ],
          [
            100.95614280558979,
            13.231674636509565
          ],
          [
            100.95613921067485,
            13.231224129652567
          ],
          [
            100.95567339795628,
            13.231227696622824
          ],
          [
            100.95567699201648,
            13.231678203605536
          ]
        ],
        "status": "Operational"
      }
    },
    {
      "type": "Feature",
      "id": "det_16",
      "geometry": {
        "type": "Point",
        "coordinates": [
          100.955613,
          13.232108
        ]
      },
      "properties": {
        "object_id": "OBJ-016",
        "class": "car",
        "confidence": 0.319,
        "model_source": "yolov8n.pt",
        "has_segmentation": false,
        "land_use_zone": "u",
        "land_use_name": "Urban / Road Corridor",
        "in_runway_safety_buffer": true,
        "risk_alert": "RUNWAY_BUFFER_INTRUSION_WARNING",
        "pixel_coordinates": [
          5466.6,
          5473.9
        ],
        "wgs84_coords": [
          13.232108,
          100.955613
        ],
        "bbox_polygon": [
          [
            100.95559267787542,
            13.232128148418997
          ],
          [
            100.95563320232898,
            13.232127838129149
          ],
          [
            100.9556328828384,
            13.232087791928627
          ],
          [
            100.95559235839144,
            13.232088102217507
          ],
          [
            100.95559267787542,
            13.232128148418997
          ]
        ],
        "segmentation_polygon": [
          [
            100.95559267787542,
            13.232128148418997
          ],
          [
            100.95563320232898,
            13.232127838129149
          ],
          [
            100.9556328828384,
            13.232087791928627
          ],
          [
            100.95559235839144,
            13.232088102217507
          ],
          [
            100.95559267787542,
            13.232128148418997
          ]
        ],
        "status": "Parked / Static"
      }
    },
    {
      "type": "Feature",
      "id": "det_17",
      "geometry": {
        "type": "Point",
        "coordinates": [
          100.955302,
          13.232151
        ]
      },
      "properties": {
        "object_id": "OBJ-017",
        "class": "car",
        "confidence": 0.303,
        "model_source": "yolov8n.pt",
        "has_segmentation": false,
        "land_use_zone": "u",
        "land_use_name": "Urban / Road Corridor",
        "in_runway_safety_buffer": true,
        "risk_alert": "RUNWAY_BUFFER_INTRUSION_WARNING",
        "pixel_coordinates": [
          4792.9,
          5383.0
        ],
        "wgs84_coords": [
          13.232151,
          100.955302
        ],
        "bbox_polygon": [
          [
            100.95528321664082,
            13.232170644470928
          ],
          [
            100.95532182784797,
            13.232170348876615
          ],
          [
            100.95532152302304,
            13.23213213496933
          ],
          [
            100.95528291182193,
            13.232132430562762
          ],
          [
            100.95528321664082,
            13.232170644470928
          ]
        ],
        "segmentation_polygon": [
          [
            100.95528321664082,
            13.232170644470928
          ],
          [
            100.95532182784797,
            13.232170348876615
          ],
          [
            100.95532152302304,
            13.23213213496933
          ],
          [
            100.95528291182193,
            13.232132430562762
          ],
          [
            100.95528321664082,
            13.232170644470928
          ]
        ],
        "status": "Parked / Static"
      }
    },
    {
      "type": "Feature",
      "id": "det_18",
      "geometry": {
        "type": "Point",
        "coordinates": [
          100.955184,
          13.232305
        ]
      },
      "properties": {
        "object_id": "OBJ-018",
        "class": "car",
        "confidence": 0.248,
        "model_source": "yolov8n.pt",
        "has_segmentation": false,
        "land_use_zone": "u",
        "land_use_name": "Urban / Road Corridor",
        "in_runway_safety_buffer": false,
        "risk_alert": "NORMAL",
        "pixel_coordinates": [
          4533.6,
          5044.7
        ],
        "wgs84_coords": [
          13.232305,
          100.955184
        ],
        "bbox_polygon": [
          [
            100.95516400688648,
            13.232328500555
          ],
          [
            100.95520427863543,
            13.23232819226341
          ],
          [
            100.95520390946741,
            13.232281909854484
          ],
          [
            100.95516363772606,
            13.23228221814496
          ],
          [
            100.95516400688648,
            13.232328500555
          ]
        ],
        "segmentation_polygon": [
          [
            100.95516400688648,
            13.232328500555
          ],
          [
            100.95520427863543,
            13.23232819226341
          ],
          [
            100.95520390946741,
            13.232281909854484
          ],
          [
            100.95516363772606,
            13.23228221814496
          ],
          [
            100.95516400688648,
            13.232328500555
          ]
        ],
        "status": "Parked / Static"
      }
    },
    {
      "type": "Feature",
      "id": "det_19",
      "geometry": {
        "type": "Point",
        "coordinates": [
          100.955545,
          13.23219
        ]
      },
      "properties": {
        "object_id": "OBJ-019",
        "class": "car",
        "confidence": 0.2,
        "model_source": "yolov8n.pt",
        "has_segmentation": false,
        "land_use_zone": "u",
        "land_use_name": "Urban / Road Corridor",
        "in_runway_safety_buffer": true,
        "risk_alert": "RUNWAY_BUFFER_INTRUSION_WARNING",
        "pixel_coordinates": [
          5318.8,
          5293.7
        ],
        "wgs84_coords": [
          13.23219,
          100.955545
        ],
        "bbox_polygon": [
          [
            100.95552296151821,
            13.232213478643418
          ],
          [
            100.95556789874529,
            13.232213134575433
          ],
          [
            100.95556752513535,
            13.232166303578243
          ],
          [
            100.95552258791685,
            13.232166647644968
          ],
          [
            100.95552296151821,
            13.232213478643418
          ]
        ],
        "segmentation_polygon": [
          [
            100.95552296151821,
            13.232213478643418
          ],
          [
            100.95556789874529,
            13.232213134575433
          ],
          [
            100.95556752513535,
            13.232166303578243
          ],
          [
            100.95552258791685,
            13.232166647644968
          ],
          [
            100.95552296151821,
            13.232213478643418
          ]
        ],
        "status": "Parked / Static"
      }
    },
    {
      "type": "Feature",
      "id": "det_20",
      "geometry": {
        "type": "Point",
        "coordinates": [
          100.954605,
          13.23175
        ]
      },
      "properties": {
        "object_id": "OBJ-020",
        "class": "car",
        "confidence": 0.164,
        "model_source": "yolov8n.pt",
        "has_segmentation": false,
        "land_use_zone": "u",
        "land_use_name": "Urban / Road Corridor",
        "in_runway_safety_buffer": false,
        "risk_alert": "NORMAL",
        "pixel_coordinates": [
          3288.9,
          6283.8
        ],
        "wgs84_coords": [
          13.23175,
          100.954605
        ],
        "bbox_polygon": [
          [
            100.9545731347045,
            13.231789183135266
          ],
          [
            100.95463829881581,
            13.231788684452171
          ],
          [
            100.95463767285376,
            13.23171018174051
          ],
          [
            100.9545725087633,
            13.231710680420543
          ],
          [
            100.9545731347045,
            13.231789183135266
          ]
        ],
        "segmentation_polygon": [
          [
            100.9545731347045,
            13.231789183135266
          ],
          [
            100.95463829881581,
            13.231788684452171
          ],
          [
            100.95463767285376,
            13.23171018174051
          ],
          [
            100.9545725087633,
            13.231710680420543
          ],
          [
            100.9545731347045,
            13.231789183135266
          ]
        ],
        "status": "Parked / Static"
      }
    },
    {
      "type": "Feature",
      "id": "det_21",
      "geometry": {
        "type": "Point",
        "coordinates": [
          100.955525,
          13.232174
        ]
      },
      "properties": {
        "object_id": "OBJ-021",
        "class": "car",
        "confidence": 0.153,
        "model_source": "yolov8n.pt",
        "has_segmentation": false,
        "land_use_zone": "u",
        "land_use_name": "Urban / Road Corridor",
        "in_runway_safety_buffer": true,
        "risk_alert": "RUNWAY_BUFFER_INTRUSION_WARNING",
        "pixel_coordinates": [
          5275.0,
          5330.2
        ],
        "wgs84_coords": [
          13.232174,
          100.955525
        ],
        "bbox_polygon": [
          [
            100.95550591444977,
            13.232194064008109
          ],
          [
            100.95554424191221,
            13.23219377055214
          ],
          [
            100.95554391745212,
            13.232153099811534
          ],
          [
            100.95550558999602,
            13.23215339326657
          ],
          [
            100.95550591444977,
            13.232194064008109
          ]
        ],
        "segmentation_polygon": [
          [
            100.95550591444977,
            13.232194064008109
          ],
          [
            100.95554424191221,
            13.23219377055214
          ],
          [
            100.95554391745212,
            13.232153099811534
          ],
          [
            100.95550558999602,
            13.23215339326657
          ],
          [
            100.95550591444977,
            13.232194064008109
          ]
        ],
        "status": "Parked / Static"
      }
    },
    {
      "type": "Feature",
      "id": "det_22",
      "geometry": {
        "type": "Point",
        "coordinates": [
          100.955594,
          13.231985
        ]
      },
      "properties": {
        "object_id": "OBJ-022",
        "class": "car",
        "confidence": 0.151,
        "model_source": "yolov8n.pt",
        "has_segmentation": false,
        "land_use_zone": "u",
        "land_use_name": "Urban / Road Corridor",
        "in_runway_safety_buffer": true,
        "risk_alert": "RUNWAY_BUFFER_INTRUSION_WARNING",
        "pixel_coordinates": [
          5427.3,
          5747.4
        ],
        "wgs84_coords": [
          13.231985,
          100.955594
        ],
        "bbox_polygon": [
          [
            100.95557436554242,
            13.232004756901658
          ],
          [
            100.95561322020247,
            13.23200445940266
          ],
          [
            100.95561289967442,
            13.231964282364045
          ],
          [
            100.95557404502074,
            13.231964579862108
          ],
          [
            100.95557436554242,
            13.232004756901658
          ]
        ],
        "segmentation_polygon": [
          [
            100.95557436554242,
            13.232004756901658
          ],
          [
            100.95561322020247,
            13.23200445940266
          ],
          [
            100.95561289967442,
            13.231964282364045
          ],
          [
            100.95557404502074,
            13.231964579862108
          ],
          [
            100.95557436554242,
            13.232004756901658
          ]
        ],
        "status": "Parked / Static"
      }
    },
    {
      "type": "Feature",
      "id": "det_23",
      "geometry": {
        "type": "Point",
        "coordinates": [
          100.954572,
          13.232737
        ]
      },
      "properties": {
        "object_id": "OBJ-023",
        "class": "car",
        "confidence": 0.93,
        "model_source": "yolov8n.pt",
        "has_segmentation": false,
        "land_use_zone": "f",
        "land_use_name": "Zone",
        "in_runway_safety_buffer": false,
        "risk_alert": "NORMAL",
        "pixel_coordinates": [
          3200,
          4100
        ],
        "wgs84_coords": [
          13.232737,
          100.954572
        ],
        "bbox_polygon": [
          [
            100.95456311413142,
            13.232745883216973
          ],
          [
            100.95458156382712,
            13.232745742019452
          ],
          [
            100.95458141969819,
            13.232727667497953
          ],
          [
            100.95456297000383,
            13.232727808695273
          ],
          [
            100.95456311413142,
            13.232745883216973
          ]
        ],
        "segmentation_polygon": [
          [
            100.95456311413142,
            13.232745883216973
          ],
          [
            100.95458156382712,
            13.232745742019452
          ],
          [
            100.95458141969819,
            13.232727667497953
          ],
          [
            100.95456297000383,
            13.232727808695273
          ],
          [
            100.95456311413142,
            13.232745883216973
          ]
        ],
        "status": "Parked / Static"
      }
    },
    {
      "type": "Feature",
      "id": "det_24",
      "geometry": {
        "type": "Point",
        "coordinates": [
          100.954641,
          13.232714
        ]
      },
      "properties": {
        "object_id": "OBJ-024",
        "class": "car",
        "confidence": 0.94,
        "model_source": "yolov8n.pt",
        "has_segmentation": false,
        "land_use_zone": "f",
        "land_use_name": "Zone",
        "in_runway_safety_buffer": false,
        "risk_alert": "NORMAL",
        "pixel_coordinates": [
          3350,
          4150
        ],
        "wgs84_coords": [
          13.232714,
          100.954641
        ],
        "bbox_polygon": [
          [
            100.9546321203234,
            13.232722760568212
          ],
          [
            100.9546505700166,
            13.23272261936595
          ],
          [
            100.95465042588283,
            13.232704544845168
          ],
          [
            100.95463197619098,
            13.232704686047231
          ],
          [
            100.9546321203234,
            13.232722760568212
          ]
        ],
        "segmentation_polygon": [
          [
            100.9546321203234,
            13.232722760568212
          ],
          [
            100.9546505700166,
            13.23272261936595
          ],
          [
            100.95465042588283,
            13.232704544845168
          ],
          [
            100.95463197619098,
            13.232704686047231
          ],
          [
            100.9546321203234,
            13.232722760568212
          ]
        ],
        "status": "Parked / Static"
      }
    },
    {
      "type": "Feature",
      "id": "det_25",
      "geometry": {
        "type": "Point",
        "coordinates": [
          100.954701,
          13.232691
        ]
      },
      "properties": {
        "object_id": "OBJ-025",
        "class": "car",
        "confidence": 0.88,
        "model_source": "yolov8n.pt",
        "has_segmentation": false,
        "land_use_zone": "u",
        "land_use_name": "Urban / Road Corridor",
        "in_runway_safety_buffer": false,
        "risk_alert": "NORMAL",
        "pixel_coordinates": [
          3480,
          4200
        ],
        "wgs84_coords": [
          13.232691,
          100.954701
        ],
        "bbox_polygon": [
          [
            100.95469190165451,
            13.232699708505573
          ],
          [
            100.95471035134533,
            13.232699567299234
          ],
          [
            100.95471020720741,
            13.232681492779065
          ],
          [
            100.95469175751796,
            13.232681633985203
          ],
          [
            100.95469190165451,
            13.232699708505573
          ]
        ],
        "segmentation_polygon": [
          [
            100.95469190165451,
            13.232699708505573
          ],
          [
            100.95471035134533,
            13.232699567299234
          ],
          [
            100.95471020720741,
            13.232681492779065
          ],
          [
            100.95469175751796,
            13.232681633985203
          ],
          [
            100.95469190165451,
            13.232699708505573
          ]
        ],
        "status": "Parked / Static"
      }
    },
    {
      "type": "Feature",
      "id": "det_26",
      "geometry": {
        "type": "Point",
        "coordinates": [
          100.954412,
          13.232828
        ]
      },
      "properties": {
        "object_id": "OBJ-026",
        "class": "truck",
        "confidence": 0.91,
        "model_source": "yolov8n.pt",
        "has_segmentation": false,
        "land_use_zone": "m",
        "land_use_name": "Zone",
        "in_runway_safety_buffer": false,
        "risk_alert": "NORMAL",
        "pixel_coordinates": [
          2850,
          3900
        ],
        "wgs84_coords": [
          13.232828,
          100.954412
        ],
        "bbox_polygon": [
          [
            100.95439785949873,
            13.23284656381352
          ],
          [
            100.9544255340563,
            13.232846352033059
          ],
          [
            100.95442524581937,
            13.232810202986935
          ],
          [
            100.95439757126586,
            13.232810414766798
          ],
          [
            100.95439785949873,
            13.23284656381352
          ]
        ],
        "segmentation_polygon": [
          [
            100.95439785949873,
            13.23284656381352
          ],
          [
            100.9544255340563,
            13.232846352033059
          ],
          [
            100.95442524581937,
            13.232810202986935
          ],
          [
            100.95439757126586,
            13.232810414766798
          ],
          [
            100.95439785949873,
            13.23284656381352
          ]
        ],
        "status": "Parked / Static"
      }
    },
    {
      "type": "Feature",
      "id": "det_27",
      "geometry": {
        "type": "Point",
        "coordinates": [
          100.954524,
          13.232511
        ]
      },
      "properties": {
        "object_id": "OBJ-027",
        "class": "car",
        "confidence": 0.92,
        "model_source": "yolov8n.pt",
        "has_segmentation": false,
        "land_use_zone": "f",
        "land_use_name": "Zone",
        "in_runway_safety_buffer": false,
        "risk_alert": "NORMAL",
        "pixel_coordinates": [
          3100,
          4600
        ],
        "wgs84_coords": [
          13.232511,
          100.954524
        ],
        "bbox_polygon": [
          [
            100.95451518835432,
            13.232520304675536
          ],
          [
            100.95453363803358,
            13.232520163483837
          ],
          [
            100.95453349391072,
            13.2325020889615
          ],
          [
            100.95451504423282,
            13.232502230153
          ],
          [
            100.95451518835432,
            13.232520304675536
          ]
        ],
        "segmentation_polygon": [
          [
            100.95451518835432,
            13.232520304675536
          ],
          [
            100.95453363803358,
            13.232520163483837
          ],
          [
            100.95453349391072,
            13.2325020889615
          ],
          [
            100.95451504423282,
            13.232502230153
          ],
          [
            100.95451518835432,
            13.232520304675536
          ]
        ],
        "status": "Parked / Static"
      }
    },
    {
      "type": "Feature",
      "id": "det_28",
      "geometry": {
        "type": "Point",
        "coordinates": [
          100.954756,
          13.232645
        ]
      },
      "properties": {
        "object_id": "OBJ-028",
        "class": "motorcycle",
        "confidence": 0.82,
        "model_source": "yolov8n.pt",
        "has_segmentation": false,
        "land_use_zone": "u",
        "land_use_name": "parking",
        "in_runway_safety_buffer": false,
        "risk_alert": "NORMAL",
        "pixel_coordinates": [
          3600,
          4300
        ],
        "wgs84_coords": [
          13.232645,
          100.954756
        ],
        "bbox_polygon": [
          [
            100.9547514667617,
            13.232649544650812
          ],
          [
            100.95476069160492,
            13.232649474045921
          ],
          [
            100.95476061953437,
            13.232640436786076
          ],
          [
            100.95475139469148,
            13.232640507390917
          ],
          [
            100.9547514667617,
            13.232649544650812
          ]
        ],
        "segmentation_polygon": [
          [
            100.9547514667617,
            13.232649544650812
          ],
          [
            100.95476069160492,
            13.232649474045921
          ],
          [
            100.95476061953437,
            13.232640436786076
          ],
          [
            100.95475139469148,
            13.232640507390917
          ],
          [
            100.9547514667617,
            13.232649544650812
          ]
        ],
        "status": "Parked / Static"
      }
    },
    {
      "type": "Feature",
      "id": "det_29",
      "geometry": {
        "type": "Point",
        "coordinates": [
          100.955306,
          13.232234
        ]
      },
      "properties": {
        "object_id": "OBJ-029",
        "class": "airplane",
        "confidence": 0.96,
        "model_source": "yolov8n.pt",
        "has_segmentation": false,
        "land_use_zone": "u",
        "land_use_name": "Urban / Road Corridor",
        "in_runway_safety_buffer": false,
        "risk_alert": "NORMAL",
        "pixel_coordinates": [
          4800,
          5200
        ],
        "wgs84_coords": [
          13.232234,
          100.955306
        ],
        "bbox_polygon": [
          [
            100.95526052591478,
            13.2322796166573
          ],
          [
            100.95535277417719,
            13.232278910428992
          ],
          [
            100.95535205327674,
            13.232188537859708
          ],
          [
            100.9552598050483,
            13.232189244083022
          ],
          [
            100.95526052591478,
            13.2322796166573
          ]
        ],
        "segmentation_polygon": [
          [
            100.95526052591478,
            13.2322796166573
          ],
          [
            100.95535277417719,
            13.232278910428992
          ],
          [
            100.95535205327674,
            13.232188537859708
          ],
          [
            100.9552598050483,
            13.232189244083022
          ],
          [
            100.95526052591478,
            13.2322796166573
          ]
        ],
        "status": "Operational"
      }
    },
    {
      "type": "Feature",
      "id": "det_30",
      "geometry": {
        "type": "Point",
        "coordinates": [
          100.955584,
          13.232368
        ]
      },
      "properties": {
        "object_id": "OBJ-030",
        "class": "airplane",
        "confidence": 0.97,
        "model_source": "yolov8n.pt",
        "has_segmentation": false,
        "land_use_zone": "u",
        "land_use_name": "Urban / Road Corridor",
        "in_runway_safety_buffer": true,
        "risk_alert": "RUNWAY_OPERATIONAL",
        "pixel_coordinates": [
          5400,
          4900
        ],
        "wgs84_coords": [
          13.232368,
          100.955584
        ],
        "bbox_polygon": [
          [
            100.95553835214848,
            13.232413056710254
          ],
          [
            100.95563060044572,
            13.232412350374648
          ],
          [
            100.95562987943536,
            13.232321977821357
          ],
          [
            100.95553763117208,
            13.232322684151969
          ],
          [
            100.95553835214848,
            13.232413056710254
          ]
        ],
        "segmentation_polygon": [
          [
            100.95553835214848,
            13.232413056710254
          ],
          [
            100.95563060044572,
            13.232412350374648
          ],
          [
            100.95562987943536,
            13.232321977821357
          ],
          [
            100.95553763117208,
            13.232322684151969
          ],
          [
            100.95553835214848,
            13.232413056710254
          ]
        ],
        "status": "Operational"
      }
    }
  ]
}