{
  "type": "FeatureCollection",
  "features": [
    {
      "type": "Feature",
      "id": "feature-26",
      "properties": {
        "name": "main_build",
        "type": "u",
        "__gm_id": "feature-26",
        "__gm_shape": "polygon",
        "area": 1522.0095,
        "category_code": "u",
        "category_name_th": "ย่านเมือง พาณิชยกรรม และโครงสร้างพื้นฐาน",
        "category_name_en": "Urban & Built-up Land",
        "color": "#f59e0b",
        "area_sq_m": 1522.01,
        "area_rai": 0.951
      },
      "geometry": {
        "type": "MultiPolygon",
        "coordinates": [
          [
            [
              [
                100.95503645726399,
                13.232528391524085
              ],
              [
                100.95515251394323,
                13.232610949025457
              ],
              [
                100.95504925721167,
                13.23274941725461
              ],
              [
                100.95518916117356,
                13.232852565125512
              ],
              [
                100.95530312154767,
                13.232701000463308
              ],
              [
                100.95541803157943,
                13.23279388206609
              ],
              [
                100.95521788296179,
                13.233062665927363
              ],
              [
                100.95483017662679,
                13.23278833574635
              ],
              [
                100.95503645726399,
                13.232528391524085
              ]
            ]
          ]
        ]
      }
    },
    {
      "type": "Feature",
      "id": "feature-30",
      "properties": {
        "name": "parking",
        "type": "u",
        "__gm_id": "feature-30",
        "__gm_shape": "polygon",
        "area": 296.5415,
        "category_code": "u",
        "category_name_th": "ย่านเมือง พาณิชยกรรม และโครงสร้างพื้นฐาน",
        "category_name_en": "Urban & Built-up Land",
        "color": "#f59e0b",
        "area_sq_m": 296.54,
        "area_rai": 0.185
      },
      "geometry": {
        "type": "MultiPolygon",
        "coordinates": [
          [
            [
              [
                100.95466492939875,
                13.232503712053031
              ],
              [
                100.95482954634468,
                13.232620286367904
              ],
              [
                100.95482363016737,
                13.232629142758597
              ],
              [
                100.95483949083138,
                13.232641786968571
              ],
              [
                100.95477546476673,
                13.232714530546815
              ],
              [
                100.95469034085875,
                13.232651628198681
              ],
              [
                100.9546820749357,
                13.232661275657208
              ],
              [
                100.95462940335625,
                13.23262638077118
              ],
              [
                100.95463703060824,
                13.232614668299192
              ],
              [
                100.95459582155655,
                13.232583264905472
              ],
              [
                100.95463394897746,
                13.23253277708146
              ],
              [
                100.95463908976035,
                13.232526593064534
              ],
              [
                100.95466492939875,
                13.232503712053031
              ]
            ]
          ]
        ]
      }
    },
    {
      "type": "Feature",
      "id": "feature-34",
      "properties": {
        "name": "parking2",
        "type": "u",
        "__gm_id": "feature-34",
        "__gm_shape": "polygon",
        "area": 68.7927,
        "category_code": "u",
        "category_name_th": "ย่านเมือง พาณิชยกรรม และโครงสร้างพื้นฐาน",
        "category_name_en": "Urban & Built-up Land",
        "color": "#f59e0b",
        "area_sq_m": 68.79,
        "area_rai": 0.043
      },
      "geometry": {
        "type": "MultiPolygon",
        "coordinates": [
          [
            [
              [
                100.95474793340844,
                13.232383917333763
              ],
              [
                100.95477693335573,
                13.232346350942876
              ],
              [
                100.95487228735539,
                13.232412155686617
              ],
              [
                100.95484346749299,
                13.232453515608157
              ],
              [
                100.95474793340844,
                13.232383917333763
              ]
            ]
          ]
        ]
      }
    },
    {
      "type": "Feature",
      "id": "feature-38",
      "properties": {
        "name": "parking3",
        "type": "u",
        "__gm_id": "feature-38",
        "__gm_shape": "polygon",
        "area": 89.2418,
        "category_code": "u",
        "category_name_th": "ย่านเมือง พาณิชยกรรม และโครงสร้างพื้นฐาน",
        "category_name_en": "Urban & Built-up Land",
        "color": "#f59e0b",
        "area_sq_m": 89.24,
        "area_rai": 0.056
      },
      "geometry": {
        "type": "MultiPolygon",
        "coordinates": [
          [
            [
              [
                100.95493839984687,
                13.23234167829007
              ],
              [
                100.95497652668115,
                13.23237048726567
              ],
              [
                100.95488404456063,
                13.232493668232578
              ],
              [
                100.95484528511611,
                13.23246465159572
              ],
              [
                100.95493839984687,
                13.23234167829007
              ]
            ]
          ]
        ]
      }
    },
    {
      "type": "Feature",
      "id": "feature-42",
      "properties": {
        "name": "plant_build",
        "type": "u",
        "__gm_id": "feature-42",
        "__gm_shape": "polygon",
        "area": 476.2086,
        "category_code": "u",
        "category_name_th": "ย่านเมือง พาณิชยกรรม และโครงสร้างพื้นฐาน",
        "category_name_en": "Urban & Built-up Land",
        "color": "#f59e0b",
        "area_sq_m": 476.21,
        "area_rai": 0.298
      },
      "geometry": {
        "type": "MultiPolygon",
        "coordinates": [
          [
            [
              [
                100.9548172089327,
                13.23175034634042
              ],
              [
                100.95464591618236,
                13.231624445984906
              ],
              [
                100.95475792399986,
                13.231478750056453
              ],
              [
                100.95493232968403,
                13.231601823710491
              ],
              [
                100.9548172089327,
                13.23175034634042
              ]
            ]
          ]
        ]
      }
    },
    {
      "type": "Feature",
      "id": "feature-51",
      "properties": {
        "name": "lotus_pool",
        "type": "u",
        "__gm_id": "feature-51",
        "__gm_shape": "polygon",
        "area": 487.5583,
        "category_code": "u",
        "category_name_th": "ย่านเมือง พาณิชยกรรม และโครงสร้างพื้นฐาน",
        "category_name_en": "Urban & Built-up Land",
        "color": "#f59e0b",
        "area_sq_m": 487.56,
        "area_rai": 0.305
      },
      "geometry": {
        "type": "MultiPolygon",
        "coordinates": [
          [
            [
              [
                100.95507621911952,
                13.232733995262464
              ],
              [
                100.95507512971665,
                13.232733009394323
              ],
              [
                100.9550924087282,
                13.23271265335454
              ],
              [
                100.9550917305665,
                13.232712050698026
              ],
              [
                100.95523199395717,
                13.232522597619706
              ],
              [
                100.95535775355552,
                13.232615917413227
              ],
              [
                100.95520000530882,
                13.23282323276105
              ],
              [
                100.95507621911952,
                13.232733995262464
              ]
            ]
          ]
        ]
      }
    },
    {
      "type": "Feature",
      "id": "feature-69",
      "properties": {
        "type": "a",
        "__gm_id": "feature-69",
        "__gm_shape": "polygon",
        "area": 840.4202,
        "category_code": "a",
        "category_name_th": "พื้นที่เกษตรกรรม (พืช/ปศุสัตว์)",
        "category_name_en": "Agricultural Land",
        "color": "#84cc16",
        "area_sq_m": 840.42,
        "area_rai": 0.525
      },
      "geometry": {
        "type": "MultiPolygon",
        "coordinates": [
          [
            [
              [
                100.95584466130299,
                13.23375407910305
              ],
              [
                100.95608595532491,
                13.233702940396114
              ],
              [
                100.95615881547872,
                13.233994786324132
              ],
              [
                100.95591712198899,
                13.23401810964279
              ],
              [
                100.95584466130299,
                13.23375407910305
              ]
            ]
          ]
        ]
      }
    },
    {
      "type": "Feature",
      "id": "feature-73",
      "properties": {
        "type": "a",
        "__gm_id": "feature-73",
        "__gm_shape": "polygon",
        "area": 732.8508,
        "category_code": "a",
        "category_name_th": "พื้นที่เกษตรกรรม (พืช/ปศุสัตว์)",
        "category_name_en": "Agricultural Land",
        "color": "#84cc16",
        "area_sq_m": 732.85,
        "area_rai": 0.458
      },
      "geometry": {
        "type": "MultiPolygon",
        "coordinates": [
          [
            [
              [
                100.95545743431376,
                13.234015530554785
              ],
              [
                100.9557007931067,
                13.233954116627388
              ],
              [
                100.9557552876114,
                13.234244260753911
              ],
              [
                100.9555200162572,
                13.23422408533581
              ],
              [
                100.95545743431376,
                13.234015530554785
              ]
            ]
          ]
        ]
      }
    },
    {
      "type": "Feature",
      "id": "feature-77",
      "properties": {
        "type": "a",
        "__gm_id": "feature-77",
        "__gm_shape": "polygon",
        "area": 776.1066,
        "category_code": "a",
        "category_name_th": "พื้นที่เกษตรกรรม (พืช/ปศุสัตว์)",
        "category_name_en": "Agricultural Land",
        "color": "#84cc16",
        "area_sq_m": 776.11,
        "area_rai": 0.485
      },
      "geometry": {
        "type": "MultiPolygon",
        "coordinates": [
          [
            [
              [
                100.95568554673878,
                13.233715549287055
              ],
              [
                100.95580278535738,
                13.23371446858826
              ],
              [
                100.9559074029774,
                13.234220649289753
              ],
              [
                100.95577543866028,
                13.234233505126056
              ],
              [
                100.95568554673878,
                13.233715549287055
              ]
            ]
          ]
        ]
      }
    },
    {
      "type": "Feature",
      "id": "feature-81",
      "properties": {
        "type": "a",
        "__gm_id": "feature-81",
        "__gm_shape": "polygon",
        "area": 1193.0475,
        "category_code": "a",
        "category_name_th": "พื้นที่เกษตรกรรม (พืช/ปศุสัตว์)",
        "category_name_en": "Agricultural Land",
        "color": "#84cc16",
        "area_sq_m": 1193.05,
        "area_rai": 0.746
      },
      "geometry": {
        "type": "MultiPolygon",
        "coordinates": [
          [
            [
              [
                100.95518677706065,
                13.234360789334033
              ],
              [
                100.95515725213016,
                13.234147043676103
              ],
              [
                100.95512484041473,
                13.234128982689668
              ],
              [
                100.95508305011856,
                13.233882999836169
              ],
              [
                100.95528428986148,
                13.233823717116607
              ],
              [
                100.95537989382007,
                13.234289785282229
              ],
              [
                100.95518677706065,
                13.234360789334033
              ]
            ]
          ]
        ]
      }
    },
    {
      "type": "Feature",
      "id": "feature-85",
      "properties": {
        "type": "f",
        "__gm_id": "feature-85",
        "__gm_shape": "polygon",
        "area": 1375.3794,
        "category_code": "f",
        "category_name_th": "ป่าไม้ธรรมชาติ ป่าปลูก และพื้นที่อนุรักษ์",
        "category_name_en": "Forest Land",
        "color": "#10b981",
        "area_sq_m": 1375.38,
        "area_rai": 0.86
      },
      "geometry": {
        "type": "MultiPolygon",
        "coordinates": [
          [
            [
              [
                100.9544447926097,
                13.23189737421427
              ],
              [
                100.95481474898708,
                13.232185872545088
              ],
              [
                100.9547641084502,
                13.232261747884664
              ],
              [
                100.95487252004949,
                13.232346080072432
              ],
              [
                100.95488885407377,
                13.232317979942309
              ],
              [
                100.95492579776186,
                13.232343966589696
              ],
              [
                100.95487976115817,
                13.232408366978532
              ],
              [
                100.95477688983414,
                13.232337766831947
              ],
              [
                100.95474077066274,
                13.232384675189962
              ],
              [
                100.95475164541551,
                13.232394190677596
              ],
              [
                100.95472724524251,
                13.232426861170197
              ],
              [
                100.9545158784847,
                13.232275401141834
              ],
              [
                100.9544568161254,
                13.232091001527209
              ],
              [
                100.95435347306841,
                13.23199747767815
              ],
              [
                100.9544447926097,
                13.23189737421427
              ]
            ]
          ]
        ]
      }
    },
    {
      "type": "Feature",
      "properties": {
        "__gm_id": "feature-117",
        "__gm_shape": "polygon",
        "type": "w",
        "area": 4988.8137,
        "category_code": "w",
        "category_name_th": "แหล่งน้ำ คลอง บึง อ่างเก็บน้ำ",
        "category_name_en": "Water Bodies",
        "color": "#06b6d4",
        "area_sq_m": 4988.81,
        "area_rai": 3.118
      },
      "geometry": {
        "type": "MultiPolygon",
        "coordinates": [
          [
            [
              [
                100.95379853235215,
                13.231086514313418
              ],
              [
                100.95395307284173,
                13.230892603500308
              ],
              [
                100.95438607853043,
                13.2312415506278
              ],
              [
                100.95447210708971,
                13.231608617218555
              ],
              [
                100.95416158951298,
                13.232007863384041
              ],
              [
                100.95399814422848,
                13.231907403058543
              ],
              [
                100.95387393789537,
                13.231114100946286
              ],
              [
                100.95379853235215,
                13.231086514313418
              ]
            ]
          ]
        ]
      },
      "id": "feature-117"
    },
    {
      "type": "Feature",
      "properties": {
        "__gm_id": "feature-123",
        "__gm_shape": "polygon",
        "type": "m",
        "area": 10008.2132,
        "category_code": "m",
        "category_name_th": "พื้นที่เบ็ดเตล็ด / รกร้าง",
        "category_name_en": "Miscellaneous Land",
        "color": "#8b5cf6",
        "area_sq_m": 10008.21,
        "area_rai": 6.255
      },
      "geometry": {
        "type": "MultiPolygon",
        "coordinates": [
          [
            [
              [
                100.95375303090213,
                13.232351626881695
              ],
              [
                100.95396567159833,
                13.232488624169903
              ],
              [
                100.95419225493578,
                13.232558072459412
              ],
              [
                100.95485613518383,
                13.233067107614758
              ],
              [
                100.95491895656471,
                13.233471882037364
              ],
              [
                100.95451237079322,
                13.23361945992717
              ],
              [
                100.95416685242628,
                13.233271572129453
              ],
              [
                100.95375551068497,
                13.233299145993257
              ],
              [
                100.95375303090213,
                13.232351626881695
              ]
            ]
          ]
        ]
      },
      "id": "feature-123"
    },
    {
      "type": "Feature",
      "properties": {
        "__gm_id": "feature-129",
        "__gm_shape": "polygon",
        "type": "f",
        "area": 5244.0838,
        "category_code": "f",
        "category_name_th": "ป่าไม้ธรรมชาติ ป่าปลูก และพื้นที่อนุรักษ์",
        "category_name_en": "Forest Land",
        "color": "#10b981",
        "area_sq_m": 5244.08,
        "area_rai": 3.278
      },
      "geometry": {
        "type": "MultiPolygon",
        "coordinates": [
          [
            [
              [
                100.95383918038993,
                13.232407130125466
              ],
              [
                100.95403765499168,
                13.232101864112494
              ],
              [
                100.95409786652334,
                13.23225035438459
              ],
              [
                100.95423448189462,
                13.232323543019064
              ],
              [
                100.95436029350276,
                13.232241592712072
              ],
              [
                100.95446857212119,
                13.232323296854602
              ],
              [
                100.95461021177823,
                13.232463925197408
              ],
              [
                100.95456776517688,
                13.232631345171413
              ],
              [
                100.95469693176949,
                13.232766103714624
              ],
              [
                100.9547749813791,
                13.232905150467928
              ],
              [
                100.9548834764056,
                13.232975140145129
              ],
              [
                100.95496757990134,
                13.232992163034481
              ],
              [
                100.95511376404392,
                13.233098514168617
              ],
              [
                100.95530541341219,
                13.2330429857914
              ],
              [
                100.95539664856716,
                13.232998653936335
              ],
              [
                100.95545434736874,
                13.232933154095988
              ],
              [
                100.95550540067126,
                13.232936187452736
              ],
              [
                100.95554251949437,
                13.232973954047722
              ],
              [
                100.95552612815703,
                13.233038285215798
              ],
              [
                100.95565756424986,
                13.233125380214545
              ],
              [
                100.95576838078318,
                13.23314589078879
              ],
              [
                100.95573743429321,
                13.233243358107131
              ],
              [
                100.95561361854698,
                13.233213998572367
              ],
              [
                100.95553375855292,
                13.233230108634203
              ],
              [
                100.95540619080572,
                13.23320613071516
              ],
              [
                100.95511735800244,
                13.23321476536178
              ],
              [
                100.95497716638431,
                13.233212066488463
              ],
              [
                100.95486248176678,
                13.233108000302664
              ],
              [
                100.95485613518383,
                13.233067107614758
              ],
              [
                100.954232728553,
                13.23258910593556
              ],
              [
                100.95419225493578,
                13.232558072459412
              ],
              [
                100.95396567159833,
                13.232488624169903
              ],
              [
                100.95383918038993,
                13.232407130125466
              ]
            ]
          ]
        ]
      },
      "id": "feature-129"
    }
  ]
}